{"type": "FeatureCollection", "features": [{"type": "Feature", "properties": {"name": "Roxbury"}, "geometry": {"type": "Polygon", "coordinates": [[[-71.1025, 42.305], [-71.095, 42.305], [-71.095, 42.315], [-71.0875, 42.315], [-71.0875, 42.32], [-71.0825, 42.32], [-71.0825, 42.325], [-71.1025, 42.325], [-71.1025, 42.305]]]}}, {"type": "Feature", "properties": {"name": "South End"}, "geometry": {"type": "Polygon", "coordinates": [[[-71.085, 42.33], [-71.07, 42.33], [-71.07, 42.34], [-71.065, 42.34], [-71.065, 42.345], [-71.085, 42.345], [-71.085, 42.33]]]}}, {"type": "Feature", "properties": {"name": "Downtown Boston"}, "geometry": {"type": "Polygon", "coordinates": [[[-71.065, 42.35], [-71.045, 42.35], [-71.045, 42.36], [-71.05, 42.365], [-71.065, 42.365], [-71.065, 42.35]]]}}, {"type": "Feature", "properties": {"name": "Jamaica Plain"}, "geometry": {"type": "Polygon", "coordinates": [[[-71.115, 42.31], [-71.0975, 42.31], [-71.0975, 42.32], [-71.095, 42.325], [-71.1, 42.33], [-71.115, 42.33], [-71.115, 42.31]]]}}, {"type": "Feature", "properties": {"name": "Back Bay"}, "geometry": {"type": "Polygon", "coordinates": [[[-71.085, 42.345], [-71.065, 42.345], [-71.065, 42.355], [-71.07, 42.36], [-71.085, 42.36], [-71.085, 42.345]]]}}, {"type": "Feature", "properties": {"name": "Cambridge"}, "geometry": {"type": "Polygon", "coordinates": [[[-71.14, 42.36], [-71.09, 42.36], [-71.09, 42.375], [-71.085, 42.385], [-71.095, 42.395], [-71.12, 42.4], [-71.14, 42.39], [-71.14, 42.36]]]}}, {"type": "Feature", "properties": {"name": "Somerville"}, "geometry": {"type": "Polygon", "coordinates": [[[-71.12, 42.38], [-71.09, 42.38], [-71.09, 42.39], [-71.095, 42.395], [-71.11, 42.4], [-71.12, 42.395], [-71.12, 42.38]]]}}]}