{
  "type": "FeatureCollection",
  "features": [
    {
      "type": "Feature",
      "properties": {
        "name": "Roxbury"
      },
      "geometry": {
        "type": "Polygon",
        "coordinates": [
          [
            [
              -71.1025,
              42.305
            ],
            [
              -71.095,
              42.305
            ],
            [
              -71.095,
              42.315
            ],
            [
              -71.0875,
              42.315
            ],
            [
              -71.0875,
              42.32
            ],
            [
              -71.0825,
              42.32
            ],
            [
              -71.0825,
              42.325
            ],
            [
              -71.1025,
              42.325
            ],
            [
              -71.1025,
              42.305
            ]
          ]
        ]
      }
    },
    {
      "type": "Feature",
      "properties": {
        "name": "South End"
      },
      "geometry": {
        "type": "Polygon",
        "coordinates": [
          [
            [
              -71.085,
              42.33
            ],
            [
              -71.07,
              42.33
            ],
            [
              -71.07,
              42.34
            ],
            [
              -71.065,
              42.34
            ],
            [
              -71.065,
              42.345
            ],
            [
              -71.085,
              42.345
            ],
            [
              -71.085,
              42.33
            ]
          ]
        ]
      }
    },
    {
      "type": "Feature",
      "properties": {
        "name": "Downtown Boston"
      },
      "geometry": {
        "type": "Polygon",
        "coordinates": [
          [
            [
              -71.065,
              42.35
            ],
            [
              -71.045,
              42.35
            ],
            [
              -71.045,
              42.36
            ],
            [
              -71.05,
              42.365
            ],
            [
              -71.065,
              42.365
            ],
            [
              -71.065,
              42.35
            ]
          ]
        ]
      }
    }
  ]
}